0 FENGYUN 1C DEB
1 31460U 99025BUY 13282.62728486  .00033669  00000-0  58648-2 0   304
2 31460 098.3437 158.8796 0248760 118.8429 296.8288 14.49672035335100
0 FENGYUN 1C DEB
1 31460U 99025BUY 13283.87104315  .00038713  00000-0  67238-2 0   312
2 31460 098.3445 160.1110 0248939 115.0650 307.8985 14.49735136335286
0 FENGYUN 1C DEB
1 31460U 99025BUY 13284.43465396  .00035258  00000-0  61217-2 0   327
2 31460 098.3442 160.6696 0249038 113.3507 009.4404 14.49757401335369
0 FENGYUN 1C DEB
1 31460U 99025BUY 13285.47011751  .00028149  00000-0  48870-2 0   336
2 31460 098.3443 161.6951 0249033 110.1918 013.7645 14.49810538335514
0 FENGYUN 1C DEB
1 31460U 99025BUY 13287.13188299  .00025848  00000-0  44817-2 0   344
2 31460 098.3433 163.3442 0249020 105.0777 047.3259 14.49883648335751
0 FENGYUN 1C DEB
1 31460U 99025BUY 13287.87310574  .00050171  00000-0  86587-2 0   356
2 31460 098.3431 164.0793 0248906 102.8286 316.2554 14.49931845335869
0 FENGYUN 1C DEB
1 31460U 99025BUY 13289.19674884  .00040908  00000-0  70504-2 0   360
2 31460 098.3434 165.3905 0248876 098.7656 025.6898 14.50044198336053
0 FENGYUN 1C DEB
1 31460U 99025BUY 13290.43837155  .00044972  00000-0  77385-2 0   371
2 31460 098.3425 166.6214 0248665 095.0273 027.2903 14.50113034336232
0 FENGYUN 1C DEB
1 31460U 99025BUY 13290.90861288  .00036087  00000-0  62058-2 0   387
2 31460 098.3438 167.0883 0248947 093.5162 322.2539 14.50154064336305
0 FENGYUN 1C DEB
1 31460U 99025BUY 13291.87516466  .00036183  00000-0  62173-2 0   395
2 31460 098.3421 168.0464 0248816 090.6290 328.2241 14.50204516336447
0 FENGYUN 1C DEB
1 31460U 99025BUY 13292.63326652  .00028333  00000-0  48693-2 0   407
2 31460 098.3418 168.7982 0248811 088.3143 326.1478 14.50251707336556
0 FENGYUN 1C DEB
1 31460U 99025BUY 13294.63546088  .00043490  00000-0  74389-2 0   419
2 31460 098.3418 170.7839 0248744 082.2215 339.8095 14.50354428336840
0 FENGYUN 1C DEB
1 31460U 99025BUY 13295.47413315  .00044369  00000-0  75785-2 0   426
2 31460 098.3425 171.6169 0248778 079.6684 038.8401 14.50402025336968
